[{"OBJECT_NAME":"CENTISPACE-1 OBJECT C","OBJECT_ID":"2026-060C","EPOCH":"2026-04-19T20:03:57.513312","MEAN_MOTION":14.73751774,"ECCENTRICITY":0.0010522,"INCLINATION":54.981,"RA_OF_ASC_NODE":273.8175,"ARG_OF_PERICENTER":12.9744,"MEAN_ANOMALY":347.1523,"EPHEMERIS_TYPE":0,"CLASSIFICATION_TYPE":"U","NORAD_CAT_ID":68352,"ELEMENT_SET_NO":999,"REV_AT_EPOCH":416,"BSTAR":2.0693e-5,"MEAN_MOTION_DOT":-7.1e-7,"MEAN_MOTION_DDOT":0},{"OBJECT_NAME":"CENTISPACE-1 OBJECT D","OBJECT_ID":"2026-060D","EPOCH":"2026-04-19T03:43:10.508736","MEAN_MOTION":14.7414724,"ECCENTRICITY":0.00118363,"INCLINATION":54.9864,"RA_OF_ASC_NODE":276.5742,"ARG_OF_PERICENTER":17.4552,"MEAN_ANOMALY":342.6852,"EPHEMERIS_TYPE":0,"CLASSIFICATION_TYPE":"U","NORAD_CAT_ID":68353,"ELEMENT_SET_NO":999,"REV_AT_EPOCH":406,"BSTAR":1.8803447e-5,"MEAN_MOTION_DOT":-8.3e-7,"MEAN_MOTION_DDOT":0},{"OBJECT_NAME":"CENTISPACE-1 OBJECT E","OBJECT_ID":"2026-060E","EPOCH":"2026-04-19T19:55:28.401312","MEAN_MOTION":14.74551992,"ECCENTRICITY":0.001317,"INCLINATION":54.9765,"RA_OF_ASC_NODE":273.7727,"ARG_OF_PERICENTER":14.0156,"MEAN_ANOMALY":346.1206,"EPHEMERIS_TYPE":0,"CLASSIFICATION_TYPE":"U","NORAD_CAT_ID":68354,"ELEMENT_SET_NO":999,"REV_AT_EPOCH":416,"BSTAR":1.8686e-5,"MEAN_MOTION_DOT":-8.4e-7,"MEAN_MOTION_DDOT":0},{"OBJECT_NAME":"CENTISPACE-1 OBJECT F","OBJECT_ID":"2026-060F","EPOCH":"2026-04-18T11:28:18.948576","MEAN_MOTION":14.73778708,"ECCENTRICITY":0.00097143,"INCLINATION":54.9766,"RA_OF_ASC_NODE":279.3165,"ARG_OF_PERICENTER":11.9104,"MEAN_ANOMALY":348.2123,"EPHEMERIS_TYPE":0,"CLASSIFICATION_TYPE":"U","NORAD_CAT_ID":68355,"ELEMENT_SET_NO":999,"REV_AT_EPOCH":396,"BSTAR":1.9601164e-5,"MEAN_MOTION_DOT":-7.8e-7,"MEAN_MOTION_DDOT":0},{"OBJECT_NAME":"CENTISPACE-1 OBJECT G","OBJECT_ID":"2026-060G","EPOCH":"2026-04-19T05:13:29.497728","MEAN_MOTION":14.7429243,"ECCENTRICITY":0.00132717,"INCLINATION":54.9842,"RA_OF_ASC_NODE":276.307,"ARG_OF_PERICENTER":15.0906,"MEAN_ANOMALY":345.0487,"EPHEMERIS_TYPE":0,"CLASSIFICATION_TYPE":"U","NORAD_CAT_ID":68356,"ELEMENT_SET_NO":999,"REV_AT_EPOCH":407,"BSTAR":1.726847e-5,"MEAN_MOTION_DOT":-9.3e-7,"MEAN_MOTION_DDOT":0},{"OBJECT_NAME":"CENTISPACE-1 OBJECT H","OBJECT_ID":"2026-060H","EPOCH":"2026-04-18T06:29:09.011616","MEAN_MOTION":14.742216,"ECCENTRICITY":0.00121099,"INCLINATION":54.9857,"RA_OF_ASC_NODE":280.1494,"ARG_OF_PERICENTER":14.0398,"MEAN_ANOMALY":346.0935,"EPHEMERIS_TYPE":0,"CLASSIFICATION_TYPE":"U","NORAD_CAT_ID":68357,"ELEMENT_SET_NO":999,"REV_AT_EPOCH":393,"BSTAR":1.8167596e-5,"MEAN_MOTION_DOT":-8.7e-7,"MEAN_MOTION_DDOT":0},{"OBJECT_NAME":"CENTISPACE-1 OBJECT J","OBJECT_ID":"2026-060J","EPOCH":"2026-04-18T17:53:36.873888","MEAN_MOTION":14.74012676,"ECCENTRICITY":0.0011679,"INCLINATION":54.9817,"RA_OF_ASC_NODE":278.2094,"ARG_OF_PERICENTER":10.5989,"MEAN_ANOMALY":349.5254,"EPHEMERIS_TYPE":0,"CLASSIFICATION_TYPE":"U","NORAD_CAT_ID":68358,"ELEMENT_SET_NO":999,"REV_AT_EPOCH":400,"BSTAR":1.8236e-5,"MEAN_MOTION_DOT":-8.7e-7,"MEAN_MOTION_DDOT":0},{"OBJECT_NAME":"CENTISPACE-1 OBJECT K","OBJECT_ID":"2026-060K","EPOCH":"2026-04-04T15:27:21.758112","MEAN_MOTION":14.75283234,"ECCENTRICITY":0.0014769,"INCLINATION":54.98,"RA_OF_ASC_NODE":335.6935,"ARG_OF_PERICENTER":336.0624,"MEAN_ANOMALY":23.9687,"EPHEMERIS_TYPE":0,"CLASSIFICATION_TYPE":"U","NORAD_CAT_ID":68359,"ELEMENT_SET_NO":999,"REV_AT_EPOCH":192,"BSTAR":4.3130657e-5,"MEAN_MOTION_DOT":8.4e-7,"MEAN_MOTION_DDOT":0},{"OBJECT_NAME":"RASSVET-3 1","OBJECT_ID":"2026-061A","EPOCH":"2026-04-19T15:01:39.796320","MEAN_MOTION":15.87084817,"ECCENTRICITY":0.0019787,"INCLINATION":82.2955,"RA_OF_ASC_NODE":78.2695,"ARG_OF_PERICENTER":334.6254,"MEAN_ANOMALY":25.4042,"EPHEMERIS_TYPE":0,"CLASSIFICATION_TYPE":"U","NORAD_CAT_ID":68360,"ELEMENT_SET_NO":999,"REV_AT_EPOCH":427,"BSTAR":0.00035957,"MEAN_MOTION_DOT":0.00094373,"MEAN_MOTION_DDOT":1.9026e-6},{"OBJECT_NAME":"RASSVET-3 2","OBJECT_ID":"2026-061B","EPOCH":"2026-04-19T14:25:05.085120","MEAN_MOTION":15.91645646,"ECCENTRICITY":0.0021156,"INCLINATION":82.2969,"RA_OF_ASC_NODE":78.2371,"ARG_OF_PERICENTER":331.4253,"MEAN_ANOMALY":28.5858,"EPHEMERIS_TYPE":0,"CLASSIFICATION_TYPE":"U","NORAD_CAT_ID":68361,"ELEMENT_SET_NO":999,"REV_AT_EPOCH":427,"BSTAR":0.00037648,"MEAN_MOTION_DOT":0.00124546,"MEAN_MOTION_DDOT":4.4298e-6},{"OBJECT_NAME":"RASSVET-3 3","OBJECT_ID":"2026-061C","EPOCH":"2026-04-19T05:21:36.510336","MEAN_MOTION":15.91547765,"ECCENTRICITY":0.0020929,"INCLINATION":82.2966,"RA_OF_ASC_NODE":78.6649,"ARG_OF_PERICENTER":333.0444,"MEAN_ANOMALY":26.974,"EPHEMERIS_TYPE":0,"CLASSIFICATION_TYPE":"U","NORAD_CAT_ID":68362,"ELEMENT_SET_NO":999,"REV_AT_EPOCH":421,"BSTAR":0.00035267,"MEAN_MOTION_DOT":0.00116053,"MEAN_MOTION_DDOT":3.6864e-6},{"OBJECT_NAME":"RASSVET-3 4","OBJECT_ID":"2026-061D","EPOCH":"2026-04-19T15:56:41.623296","MEAN_MOTION":15.91634661,"ECCENTRICITY":0.0021251,"INCLINATION":82.2976,"RA_OF_ASC_NODE":78.1688,"ARG_OF_PERICENTER":330.4609,"MEAN_ANOMALY":29.5461,"EPHEMERIS_TYPE":0,"CLASSIFICATION_TYPE":"U","NORAD_CAT_ID":68363,"ELEMENT_SET_NO":999,"REV_AT_EPOCH":428,"BSTAR":0.00043845,"MEAN_MOTION_DOT":0.0014493,"MEAN_MOTION_DDOT":6.4208e-6},{"OBJECT_NAME":"RASSVET-3 5","OBJECT_ID":"2026-061E","EPOCH":"2026-04-19T15:55:11.560800","MEAN_MOTION":15.91713015,"ECCENTRICITY":0.0020837,"INCLINATION":82.2965,"RA_OF_ASC_NODE":78.1647,"ARG_OF_PERICENTER":329.9538,"MEAN_ANOMALY":30.0538,"EPHEMERIS_TYPE":0,"CLASSIFICATION_TYPE":"U","NORAD_CAT_ID":68364,"ELEMENT_SET_NO":999,"REV_AT_EPOCH":428,"BSTAR":0.0003575,"MEAN_MOTION_DOT":0.00118623,"MEAN_MOTION_DDOT":3.9139e-6},{"OBJECT_NAME":"RASSVET-3 6","OBJECT_ID":"2026-061F","EPOCH":"2026-04-19T15:52:19.427808","MEAN_MOTION":15.91874042,"ECCENTRICITY":0.0020622,"INCLINATION":82.297,"RA_OF_ASC_NODE":78.162,"ARG_OF_PERICENTER":330.1481,"MEAN_ANOMALY":29.8614,"EPHEMERIS_TYPE":0,"CLASSIFICATION_TYPE":"U","NORAD_CAT_ID":68365,"ELEMENT_SET_NO":999,"REV_AT_EPOCH":428,"BSTAR":0.00037606,"MEAN_MOTION_DOT":0.00125753,"MEAN_MOTION_DDOT":4.5539e-6},{"OBJECT_NAME":"RASSVET-3 7","OBJECT_ID":"2026-061G","EPOCH":"2026-04-19T15:54:24.293088","MEAN_MOTION":15.91730912,"ECCENTRICITY":0.0020638,"INCLINATION":82.2965,"RA_OF_ASC_NODE":78.164,"ARG_OF_PERICENTER":330.0333,"MEAN_ANOMALY":29.9757,"EPHEMERIS_TYPE":0,"CLASSIFICATION_TYPE":"U","NORAD_CAT_ID":68366,"ELEMENT_SET_NO":999,"REV_AT_EPOCH":428,"BSTAR":0.00034674,"MEAN_MOTION_DOT":0.00115126,"MEAN_MOTION_DDOT":3.6198e-6},{"OBJECT_NAME":"RASSVET-3 8","OBJECT_ID":"2026-061H","EPOCH":"2026-04-19T15:54:48.117024","MEAN_MOTION":15.91766286,"ECCENTRICITY":0.0020775,"INCLINATION":82.2971,"RA_OF_ASC_NODE":78.1647,"ARG_OF_PERICENTER":329.6969,"MEAN_ANOMALY":30.3101,"EPHEMERIS_TYPE":0,"CLASSIFICATION_TYPE":"U","NORAD_CAT_ID":68367,"ELEMENT_SET_NO":999,"REV_AT_EPOCH":428,"BSTAR":0.00038224,"MEAN_MOTION_DOT":0.00127141,"MEAN_MOTION_DDOT":4.6742e-6}]
