CENTISPACE-1 OBJECT C
1 68352U 26060C   26109.83608233 -.00000071  00000+0  20693-4 0  9991
2 68352  54.9810 273.8175 0010522  12.9744 347.1523 14.73751774  4165
CENTISPACE-1 OBJECT D
1 68353U 26060D   26109.15498274 -.00000083  00000+0  18803-4 0  9992
2 68353  54.9864 276.5742 0011836  17.4552 342.6852 14.74147240  4063
CENTISPACE-1 OBJECT E
1 68354U 26060E   26109.83018983 -.00000084  00000+0  18686-4 0  9993
2 68354  54.9765 273.7727 0013170  14.0156 346.1206 14.74551992  4168
CENTISPACE-1 OBJECT F
1 68355U 26060F   26108.47799709 -.00000078  00000+0  19601-4 0  9996
2 68355  54.9766 279.3165 0009714  11.9104 348.2123 14.73778708  3969
CENTISPACE-1 OBJECT G
1 68356U 26060G   26109.21770252 -.00000093  00000+0  17268-4 0  9996
2 68356  54.9842 276.3070 0013271  15.0906 345.0487 14.74292430  4070
CENTISPACE-1 OBJECT H
1 68357U 26060H   26108.27024319 -.00000087  00000+0  18168-4 0  9991
2 68357  54.9857 280.1494 0012109  14.0398 346.0935 14.74221600  3937
CENTISPACE-1 OBJECT J
1 68358U 26060J   26108.74556567 -.00000087  00000+0  18236-4 0  9995
2 68358  54.9817 278.2094 0011679  10.5989 349.5254 14.74012676  4008
CENTISPACE-1 OBJECT K
1 68359U 26060K   26094.64400183  .00000084  00000+0  43131-4 0  9999
2 68359  54.9800 335.6935 0014769 336.0624  23.9687 14.75283234  1920
RASSVET-3 1
1 68360U 26061A   26109.62615505  .00094373  19026-5  35957-3 0  9997
2 68360  82.2955  78.2695 0019787 334.6254  25.4042 15.87084817  4271
RASSVET-3 2
1 68361U 26061B   26109.60075330  .00124546  44298-5  37648-3 0  9996
2 68361  82.2969  78.2371 0021156 331.4253  28.5858 15.91645646  4272
RASSVET-3 3
1 68362U 26061C   26109.22333924  .00116053  36864-5  35267-3 0  9990
2 68362  82.2966  78.6649 0020929 333.0444  26.9740 15.91547765  4218
RASSVET-3 4
1 68363U 26061D   26109.66437064  .00144930  64208-5  43845-3 0  9998
2 68363  82.2976  78.1688 0021251 330.4609  29.5461 15.91634661  4289
RASSVET-3 5
1 68364U 26061E   26109.66332825  .00118623  39139-5  35750-3 0  9999
2 68364  82.2965  78.1647 0020837 329.9538  30.0538 15.91713015  4289
RASSVET-3 6
1 68365U 26061F   26109.66133597  .00125753  45539-5  37606-3 0  9990
2 68365  82.2970  78.1620 0020622 330.1481  29.8614 15.91874042  4289
RASSVET-3 7
1 68366U 26061G   26109.66278117  .00115126  36198-5  34674-3 0  9995
2 68366  82.2965  78.1640 0020638 330.0333  29.9757 15.91730912  4284
RASSVET-3 8
1 68367U 26061H   26109.66305691  .00127141  46742-5  38224-3 0  9995
2 68367  82.2971  78.1647 0020775 329.6969  30.3101 15.91766286  4282
